[{"OBJECT_NAME":"STARLINK-33830","OBJECT_ID":"2025-076U","EPOCH":"2026-03-08T01:49:15.220704","MEAN_MOTION":15.27612559,"ECCENTRICITY":0.00016357,"INCLINATION":43.0005,"RA_OF_ASC_NODE":330.8038,"ARG_OF_PERICENTER":272.2843,"MEAN_ANOMALY":87.7822,"EPHEMERIS_TYPE":0,"CLASSIFICATION_TYPE":"U","NORAD_CAT_ID":63587,"ELEMENT_SET_NO":999,"REV_AT_EPOCH":5158,"BSTAR":0.00094017042,"MEAN_MOTION_DOT":0.00025726,"MEAN_MOTION_DDOT":0},{"OBJECT_NAME":"GEOSCAN 6 (RS92S6)","OBJECT_ID":"2025-155D","EPOCH":"2026-03-09T21:52:39.201312","MEAN_MOTION":15.27985277,"ECCENTRICITY":0.00087677,"INCLINATION":97.4466,"RA_OF_ASC_NODE":37.2933,"ARG_OF_PERICENTER":153.7679,"MEAN_ANOMALY":206.4006,"EPHEMERIS_TYPE":0,"CLASSIFICATION_TYPE":"U","NORAD_CAT_ID":64879,"ELEMENT_SET_NO":999,"REV_AT_EPOCH":6559,"BSTAR":0.00053762354,"MEAN_MOTION_DOT":0.00014633,"MEAN_MOTION_DDOT":0}]
